{
    "links": {
        "self": "http://www.neowsapp.com/rest/v1/neo/3773831?api_key=iIulBulltgU6a56xZRHN4H3l9WmuAYTsLGpBGhQ2"
    },
    "id": "3773831",
    "neo_reference_id": "3773831",
    "name": "(2017 GM5)",
    "designation": "2017 GM5",
    "nasa_jpl_url": "http://ssd.jpl.nasa.gov/sbdb.cgi?sstr=3773831",
    "absolute_magnitude_h": 25.8,
    "estimated_diameter": {
        "kilometers": {
            "estimated_diameter_min": 0.0183888672,
            "estimated_diameter_max": 0.0411187571
        },
        "meters": {
            "estimated_diameter_min": 18.388867207,
            "estimated_diameter_max": 41.1187571041
        },
        "miles": {
            "estimated_diameter_min": 0.0114263088,
            "estimated_diameter_max": 0.0255500032
        },
        "feet": {
            "estimated_diameter_min": 60.3309310875,
            "estimated_diameter_max": 134.9040630575
        }
    },
    "is_potentially_hazardous_asteroid": false,
    "close_approach_data": [
        {
            "close_approach_date": "2017-04-08",
            "close_approach_date_full": "2017-Apr-08 00:17",
            "epoch_date_close_approach": 1491610620000,
            "relative_velocity": {
                "kilometers_per_second": "6.8343368471",
                "kilometers_per_hour": "24603.6126494759",
                "miles_per_hour": "15287.7280932257"
            },
            "miss_distance": {
                "astronomical": "0.0783609807",
                "lunar": "30.4824214923",
                "kilometers": "11722635.803831109",
                "miles": "7284108.1199189442"
            },
            "orbiting_body": "Earth"
        }
    ],
    "orbital_data": {
        "orbit_id": "2",
        "orbit_determination_date": "2019-07-19 05:26:14",
        "first_observation_date": "2017-03-30",
        "last_observation_date": "2017-04-05",
        "data_arc_in_days": 6,
        "observations_used": 25,
        "orbit_uncertainty": "8",
        "minimum_orbit_intersection": ".0783033",
        "jupiter_tisserand_invariant": "4.563",
        "epoch_osculation": "2457845.5",
        "eccentricity": ".2614653209908918",
        "semi_major_axis": "1.460727945396956",
        "inclination": "11.76920662797125",
        "ascending_node_longitude": "15.56416989302743",
        "orbital_period": "644.8406895507179",
        "perihelion_distance": "1.078798244273375",
        "perihelion_argument": "184.5630259168627",
        "aphelion_distance": "1.842657646520537",
        "perihelion_time": "2457853.724327803745",
        "mean_anomaly": "355.4085434475125",
        "mean_motion": ".5582774254689543",
        "equinox": "J2000",
        "orbit_class": {
            "orbit_class_type": "AMO",
            "orbit_class_description": "Near-Earth asteroid orbits similar to that of 1221 Amor",
            "orbit_class_range": "1.017 AU < q (perihelion) < 1.3 AU"
        }
    },
    "is_sentry_object": false
}